{"type": "FeatureCollection", "features": [ {"type": "Feature", "properties": {"norad_id": 34340, "name": "COSMOS 2251 DEB", "group": "cosmos-2251-debris", "lat": 65.89157172557364, "lon": 65.94235251324058, "alt_km": 909.5328753663762, "timestamp": "2025-12-26T03:50:12.488182+00:00", "meta": {"OBJECT_NAME": "COSMOS 2251 DEB", "OBJECT_ID": "1993-036PN", "EPOCH": "2025-12-25T20:38:04.997184", "MEAN_MOTION": 13.796285, "ECCENTRICITY": 0.0284368, "INCLINATION": 74.0791, "RA_OF_ASC_NODE": 286.0735, "ARG_OF_PERICENTER": 30.8225, "MEAN_ANOMALY": 24.4482, "EPHEMERIS_TYPE": 0, "CLASSIFICATION_TYPE": "U", "NORAD_CAT_ID": 34340, "ELEMENT_SET_NO": 999, "REV_AT_EPOCH": 84449, "BSTAR": 0.0018624, "MEAN_MOTION_DOT": 2.582e-05, "MEAN_MOTION_DDOT": 0}, "tle": {"line1": "1 34340U 93036PN  25359.85978006  .00002582  00000+0  18624-2 0  9991", "line2": "2 34340  74.0791 286.0735 0284368  30.8225  24.4482 13.79628500844490"}}, "geometry": {"type": "Point", "coordinates": [65.94235251324058, 65.89157172557364]}}, {"type": "Feature", "properties": {"norad_id": 34343, "name": "COSMOS 2251 DEB", "group": "cosmos-2251-debris", "lat": -18.73155408732951, "lon": -110.89530565542094, "alt_km": 679.1037431358845, "timestamp": "2025-12-26T03:50:12.488192+00:00", "meta": {"OBJECT_NAME": "COSMOS 2251 DEB", "OBJECT_ID": "1993-036PR", "EPOCH": "2025-12-25T14:24:03.104352", "MEAN_MOTION": 14.69629418, "ECCENTRICITY": 0.0024459, "INCLINATION": 74.0197, "RA_OF_ASC_NODE": 64.6137, "ARG_OF_PERICENTER": 335.597, "MEAN_ANOMALY": 143.3428, "EPHEMERIS_TYPE": 0, "CLASSIFICATION_TYPE": "U", "NORAD_CAT_ID": 34343, "ELEMENT_SET_NO": 999, "REV_AT_EPOCH": 88919, "BSTAR": 0.0013766, "MEAN_MOTION_DOT": 8.202e-05, "MEAN_MOTION_DDOT": 0}, "tle": {"line1": "1 34343U 93036PR  25359.60003593  .00008202  00000+0  13766-2 0  9994", "line2": "2 34343  74.0197  64.6137 0024459 335.5970 143.3428 14.69629418889190"}}, "geometry": {"type": "Point", "coordinates": [-110.89530565542094, -18.73155408732951]}}, {"type": "Feature", "properties": {"norad_id": 34344, "name": "COSMOS 2251 DEB", "group": "cosmos-2251-debris", "lat": -70.24931437105508, "lon": -40.45228348551082, "alt_km": 732.6377311211891, "timestamp": "2025-12-26T03:50:12.488203+00:00", "meta": {"OBJECT_NAME": "COSMOS 2251 DEB", "OBJECT_ID": "1993-036PS", "EPOCH": "2025-12-20T16:41:07.998144", "MEAN_MOTION": 14.16466858, "ECCENTRICITY": 0.01566321, "INCLINATION": 73.9786, "RA_OF_ASC_NODE": 96.1449, "ARG_OF_PERICENTER": 278.7098, "MEAN_ANOMALY": 204.8003, "EPHEMERIS_TYPE": 0, "CLASSIFICATION_TYPE": "U", "NORAD_CAT_ID": 34344, "ELEMENT_SET_NO": 999, "REV_AT_EPOCH": 86209, "BSTAR": 0.0013151537, "MEAN_MOTION_DOT": 2.924e-05, "MEAN_MOTION_DDOT": 0}, "tle": {"line1": "1 34344U 93036PS  25354.69523146  .00002924  00000+0  13152-2 0  9994", "line2": "2 34344  73.9786  96.1449 0156632 278.7098 204.8003 14.16466858862098"}}, "geometry": {"type": "Point", "coordinates": [-40.45228348551082, -70.24931437105508]}}, {"type": "Feature", "properties": {"norad_id": 34346, "name": "COSMOS 2251 DEB", "group": "cosmos-2251-debris", "lat": -69.64799838122845, "lon": -121.73433597525226, "alt_km": 1051.5311194236647, "timestamp": "2025-12-26T03:50:12.488213+00:00", "meta": {"OBJECT_NAME": "COSMOS 2251 DEB", "OBJECT_ID": "1993-036PU", "EPOCH": "2025-12-24T19:46:25.139712", "MEAN_MOTION": 13.99731331, "ECCENTRICITY": 0.0206198, "INCLINATION": 73.9946, "RA_OF_ASC_NODE": 291.2772, "ARG_OF_PERICENTER": 107.3009, "MEAN_ANOMALY": 286.0021, "EPHEMERIS_TYPE": 0, "CLASSIFICATION_TYPE": "U", "NORAD_CAT_ID": 34346, "ELEMENT_SET_NO": 999, "REV_AT_EPOCH": 85579, "BSTAR": 0.00097331009, "MEAN_MOTION_DOT": 1.689e-05, "MEAN_MOTION_DDOT": 0}, "tle": {"line1": "1 34346U 93036PU  25358.82390208  .00001689  00000+0  97331-3 0  9995", "line2": "2 34346  73.9946 291.2772 0206198 107.3009 286.0021 13.99731331855799"}}, "geometry": {"type": "Point", "coordinates": [-121.73433597525226, -69.64799838122845]}}, {"type": "Feature", "properties": {"norad_id": 34383, "name": "COSMOS 2251 DEB", "group": "cosmos-2251-debris", "lat": 22.65756893944448, "lon": -83.13544262941991, "alt_km": 532.7182647523423, "timestamp": "2025-12-26T03:50:12.488224+00:00", "meta": {"OBJECT_NAME": "COSMOS 2251 DEB", "OBJECT_ID": "1993-036PY", "EPOCH": "2025-12-25T20:04:07.700736", "MEAN_MOTION": 15.10241588, "ECCENTRICITY": 0.0003015, "INCLINATION": 74.0189, "RA_OF_ASC_NODE": 270.6624, "ARG_OF_PERICENTER": 43.1972, "MEAN_ANOMALY": 21.5447, "EPHEMERIS_TYPE": 0, "CLASSIFICATION_TYPE": "U", "NORAD_CAT_ID": 34383, "ELEMENT_SET_NO": 999, "REV_AT_EPOCH": 89311, "BSTAR": 0.0033964, "MEAN_MOTION_DOT": 0.00055974, "MEAN_MOTION_DDOT": 0}, "tle": {"line1": "1 34383U 93036PY  25359.83620024  .00055974  00000+0  33964-2 0  9997", "line2": "2 34383  74.0189 270.6624 0003015  43.1972  21.5447 15.10241588893114"}}, "geometry": {"type": "Point", "coordinates": [-83.13544262941991, 22.65756893944448]}}, {"type": "Feature", "properties": {"norad_id": 34387, "name": "COSMOS 2251 DEB", "group": "cosmos-2251-debris", "lat": 25.467687284119418, "lon": -165.2139322260743, "alt_km": 751.8003225944076, "timestamp": "2025-12-26T03:50:12.488234+00:00", "meta": {"OBJECT_NAME": "COSMOS 2251 DEB", "OBJECT_ID": "1993-036QC", "EPOCH": "2025-12-25T14:43:00.054912", "MEAN_MOTION": 14.43847706, "ECCENTRICITY": 0.0038885, "INCLINATION": 74.0385, "RA_OF_ASC_NODE": 187.9673, "ARG_OF_PERICENTER": 282.6327, "MEAN_ANOMALY": 143.236, "EPHEMERIS_TYPE": 0, "CLASSIFICATION_TYPE": "U", "NORAD_CAT_ID": 34387, "ELEMENT_SET_NO": 999, "REV_AT_EPOCH": 88367, "BSTAR": 0.00031273, "MEAN_MOTION_DOT": 1.048e-05, "MEAN_MOTION_DDOT": 0}, "tle": {"line1": "1 34387U 93036QC  25359.61319508  .00001048  00000+0  31273-3 0  9994", "line2": "2 34387  74.0385 187.9673 0038885 282.6327 143.2360 14.43847706883672"}}, "geometry": {"type": "Point", "coordinates": [-165.2139322260743, 25.467687284119418]}}, {"type": "Feature", "properties": {"norad_id": 34388, "name": "COSMOS 2251 DEB", "group": "cosmos-2251-debris", "lat": -72.48512905892694, "lon": 132.8481994325527, "alt_km": 726.2696426141783, "timestamp": "2025-12-26T03:50:12.488335+00:00", "meta": {"OBJECT_NAME": "COSMOS 2251 DEB", "OBJECT_ID": "1993-036QD", "EPOCH": "2025-12-25T15:16:58.440000", "MEAN_MOTION": 14.49424422, "ECCENTRICITY": 0.0013605, "INCLINATION": 74.0379, "RA_OF_ASC_NODE": 198.9153, "ARG_OF_PERICENTER": 246.3922, "MEAN_ANOMALY": 182.544, "EPHEMERIS_TYPE": 0, "CLASSIFICATION_TYPE": "U", "NORAD_CAT_ID": 34388, "ELEMENT_SET_NO": 999, "REV_AT_EPOCH": 88342, "BSTAR": 0.00064722, "MEAN_MOTION_DOT": 2.453e-05, "MEAN_MOTION_DDOT": 0}, "tle": {"line1": "1 34388U 93036QD  25359.63678750  .00002453  00000+0  64722-3 0  9990", "line2": "2 34388  74.0379 198.9153 0013605 246.3922 182.5440 14.49424422883422"}}, "geometry": {"type": "Point", "coordinates": [132.8481994325527, -72.48512905892694]}}, {"type": "Feature", "properties": {"norad_id": 34389, "name": "COSMOS 2251 DEB", "group": "cosmos-2251-debris", "lat": -70.88297846817287, "lon": 169.15197844992892, "alt_km": 747.8346438472045, "timestamp": "2025-12-26T03:50:12.488350+00:00", "meta": {"OBJECT_NAME": "COSMOS 2251 DEB", "OBJECT_ID": "1993-036QE", "EPOCH": "2025-12-24T19:14:40.362720", "MEAN_MOTION": 14.4155901, "ECCENTRICITY": 0.00294225, "INCLINATION": 74.0174, "RA_OF_ASC_NODE": 227.4475, "ARG_OF_PERICENTER": 337.2443, "MEAN_ANOMALY": 98.9537, "EPHEMERIS_TYPE": 0, "CLASSIFICATION_TYPE": "U", "NORAD_CAT_ID": 34389, "ELEMENT_SET_NO": 999, "REV_AT_EPOCH": 88186, "BSTAR": 0.00028914905, "MEAN_MOTION_DOT": 9.18e-06, "MEAN_MOTION_DDOT": 0}, "tle": {"line1": "1 34389U 93036QE  25358.80185605  .00000918  00000+0  28915-3 0  9999", "line2": "2 34389  74.0174 227.4475 0029422 337.2443  98.9537 14.41559010881860"}}, "geometry": {"type": "Point", "coordinates": [169.15197844992892, -70.88297846817287]}}, {"type": "Feature", "properties": {"norad_id": 34396, "name": "COSMOS 2251 DEB", "group": "cosmos-2251-debris", "lat": -0.1208060468792337, "lon": 97.77970518651081, "alt_km": 650.6320084391255, "timestamp": "2025-12-26T03:50:12.488361+00:00", "meta": {"OBJECT_NAME": "COSMOS 2251 DEB", "OBJECT_ID": "1993-036QM", "EPOCH": "2025-12-25T16:57:49.043232", "MEAN_MOTION": 14.7475538, "ECCENTRICITY": 0.0004415, "INCLINATION": 74.0292, "RA_OF_ASC_NODE": 98.6993, "ARG_OF_PERICENTER": 132.9465, "MEAN_ANOMALY": 342.7819, "EPHEMERIS_TYPE": 0, "CLASSIFICATION_TYPE": "U", "NORAD_CAT_ID": 34396, "ELEMENT_SET_NO": 999, "REV_AT_EPOCH": 88537, "BSTAR": 0.0021837, "MEAN_MOTION_DOT": 0.00014611, "MEAN_MOTION_DDOT": 0}, "tle": {"line1": "1 34396U 93036QM  25359.70681763  .00014611  00000+0  21837-2 0  9993", "line2": "2 34396  74.0292  98.6993 0004415 132.9465 342.7819 14.74755380885378"}}, "geometry": {"type": "Point", "coordinates": [97.77970518651081, -0.1208060468792337]}}, {"type": "Feature", "properties": {"norad_id": 34400, "name": "COSMOS 2251 DEB", "group": "cosmos-2251-debris", "lat": -22.76754465813392, "lon": -13.435680944655491, "alt_km": 394.69005591626956, "timestamp": "2025-12-26T03:50:12.488372+00:00", "meta": {"OBJECT_NAME": "COSMOS 2251 DEB", "OBJECT_ID": "1993-036QR", "EPOCH": "2025-12-24T01:07:12.164448", "MEAN_MOTION": 15.58635981, "ECCENTRICITY": 0.00028837, "INCLINATION": 73.9625, "RA_OF_ASC_NODE": 358.2177, "ARG_OF_PERICENTER": 215.0661, "MEAN_ANOMALY": 145.0367, "EPHEMERIS_TYPE": 0, "CLASSIFICATION_TYPE": "U", "NORAD_CAT_ID": 34400, "ELEMENT_SET_NO": 999, "REV_AT_EPOCH": 90150, "BSTAR": 0.0033378255, "MEAN_MOTION_DOT": 0.00264923, "MEAN_MOTION_DDOT": 0}, "tle": {"line1": "1 34400U 93036QR  25358.04666857  .00264923  00000+0  33378-2 0  9998", "line2": "2 34400  73.9625 358.2177 0002883 215.0661 145.0367 15.58635981901502"}}, "geometry": {"type": "Point", "coordinates": [-13.435680944655491, -22.76754465813392]}}]}